[
  {
    "name": "STARLINK-30975",
    "noradId": "58446",
    "line1": "1 58446U 23183K   26176.23044066  .00001390  00000+0  60006-4 0  9999",
    "line2": "2 58446  42.9997 154.0716 0001157 273.4728  86.5991 15.27584272143201"
  },
  {
    "name": "STARLINK-30976",
    "noradId": "58447",
    "line1": "1 58447U 23183L   26176.24330200 -.00000279  00000+0 -61859-6 0  9995",
    "line2": "2 58447  43.0017 154.2090 0001175 264.4837  95.5881 15.27578689143185"
  },
  {
    "name": "STARLINK-30926",
    "noradId": "58448",
    "line1": "1 58448U 23183M   26176.41247027  .00004405  00000+0  16962-3 0  9994",
    "line2": "2 58448  43.0006 152.8307 0001008 264.2213  95.8524 15.27558169143212"
  },
  {
    "name": "STARLINK-30943",
    "noradId": "58449",
    "line1": "1 58449U 23183N   26175.93228745 -.00005756  00000+0 -19964-3 0  9994",
    "line2": "2 58449  43.0053 130.1067 0001401 286.6166  73.4532 15.27605038143432"
  },
  {
    "name": "STARLINK-30946",
    "noradId": "58450",
    "line1": "1 58450U 23183P   26176.24458332  .00000043  00000+0  11100-4 0  9995",
    "line2": "2 58450  43.0033 154.1887 0001154 270.3936  89.6783 15.27575254143183"
  },
  {
    "name": "STARLINK-30944",
    "noradId": "58451",
    "line1": "1 58451U 23183Q   26176.23557961  .00043952  00000+0  15965-2 0  9990",
    "line2": "2 58451  42.9984 154.1213 0000619 176.1445 183.9412 15.27594589143159"
  },
  {
    "name": "STARLINK-30928",
    "noradId": "58452",
    "line1": "1 58452U 23183R   26176.23944168 -.00000367  00000+0 -38293-5 0  9997",
    "line2": "2 58452  43.0006 154.1497 0001059 282.8262  77.2471 15.27588261143174"
  },
  {
    "name": "STARLINK-30957",
    "noradId": "58453",
    "line1": "1 58453U 23183S   26176.23430083  .00002186  00000+0  88957-4 0  9994",
    "line2": "2 58453  43.0032 154.1149 0000675 221.3883 138.6918 15.27574995143186"
  },
  {
    "name": "STARLINK-30966",
    "noradId": "58454",
    "line1": "1 58454U 23183T   26176.23815059 -.00000138  00000+0  45109-5 0  9994",
    "line2": "2 58454  42.9998 154.1380 0000817 275.3345  84.7413 15.27578642143187"
  },
  {
    "name": "STARLINK-30935",
    "noradId": "58455",
    "line1": "1 58455U 23183U   26176.00487833  .00000966  00000+0  44635-4 0  9995",
    "line2": "2 58455  43.0042 155.8269 0002099 287.5405  72.5217 15.27578974143141"
  },
  {
    "name": "STARLINK-30958",
    "noradId": "58457",
    "line1": "1 58457U 23183W   26176.22016430  .00000651  00000+0  33187-4 0  9993",
    "line2": "2 58457  43.0002 154.0055 0001180 265.6519  94.4198 15.27583492143182"
  },
  {
    "name": "STARLINK-30962",
    "noradId": "58458",
    "line1": "1 58458U 23183X   26176.21245617  .00001184  00000+0  52568-4 0  9990",
    "line2": "2 58458  43.0048 153.9531 0001592 274.3644  85.7025 15.27579070143182"
  },
  {
    "name": "STARLINK-30977",
    "noradId": "58459",
    "line1": "1 58459U 23183Y   26176.20489031  .00002433  00000+0  97910-4 0  9998",
    "line2": "2 58459  43.0013 154.7419 0001545 253.2737 106.7945 15.27582393143172"
  },
  {
    "name": "STARLINK-30947",
    "noradId": "58473",
    "line1": "1 58473U 23186A   26176.30938410  .00000720  00000+0  35694-4 0  9996",
    "line2": "2 58473  43.0007 179.4183 0001257 269.3476  90.7232 15.27576057142317"
  },
  {
    "name": "STARLINK-30941",
    "noradId": "58475",
    "line1": "1 58475U 23186C   26175.72347280  .00000711  00000+0  35368-4 0  9990",
    "line2": "2 58475  43.0009 182.7599 0001264 272.0210  88.0497 15.27580343142220"
  },
  {
    "name": "STARLINK-30980",
    "noradId": "58476",
    "line1": "1 58476U 23186D   26175.98887320  .00014994  00000+0  55302-3 0  9990",
    "line2": "2 58476  43.0013 181.3088 0001097 267.9794  92.0932 15.27596300142261"
  },
  {
    "name": "STARLINK-30965",
    "noradId": "58477",
    "line1": "1 58477U 23186E   26175.95982481  .00000877  00000+0  41378-4 0  9996",
    "line2": "2 58477  43.0036 166.3912 0001529 273.4311  86.6366 15.27578801142438"
  },
  {
    "name": "STARLINK-30990",
    "noradId": "58478",
    "line1": "1 58478U 23186F   26176.30554158 -.00000061  00000+0  73171-5 0  9996",
    "line2": "2 58478  42.9996 179.3861 0001006 268.8393  91.2343 15.27585007142351"
  },
  {
    "name": "STARLINK-30984",
    "noradId": "58480",
    "line1": "1 58480U 23186H   26176.46748173  .00001603  00000+0  67729-4 0  9991",
    "line2": "2 58480  43.0013 174.6086 0001310 265.4772  94.5930 15.27589296142380"
  },
  {
    "name": "STARLINK-30956",
    "noradId": "58481",
    "line1": "1 58481U 23186J   26175.93297854  .00000668  00000+0  33797-4 0  9996",
    "line2": "2 58481  43.0026 155.6257 0001345 272.0574  88.0124 15.27576148142550"
  },
  {
    "name": "STARLINK-30997",
    "noradId": "58482",
    "line1": "1 58482U 23186K   26176.30474981  .00017645  00000+0  64895-3 0  9992",
    "line2": "2 58482  43.0008 175.9401 0000870  93.4863 266.6089 15.27592147142354"
  },
  {
    "name": "STARLINK-30994",
    "noradId": "58483",
    "line1": "1 58483U 23186L   26176.52146172  .00062805  00000+0  18823-2 0  9992",
    "line2": "2 58483  42.9987   9.6232 0008459 270.3302  89.6582 15.33620240144311"
  },
  {
    "name": "STARLINK-30991",
    "noradId": "58484",
    "line1": "1 58484U 23186M   26176.27004706  .00004904  00000+0  18763-3 0  9991",
    "line2": "2 58484  43.0016 175.7069 0001579 277.4357  82.6315 15.27577363142331"
  },
  {
    "name": "STARLINK-30979",
    "noradId": "58485",
    "line1": "1 58485U 23186N   26175.72525218  .00000473  00000+0  26726-4 0  9993",
    "line2": "2 58485  43.0026 179.3637 0001109 272.9825  87.0900 15.27576769142252"
  },
  {
    "name": "STARLINK-31005",
    "noradId": "58486",
    "line1": "1 58486U 23186P   26176.30730684  .00000303  00000+0  20533-4 0  9996",
    "line2": "2 58486  43.0026 175.9916 0001295 271.1533  88.9170 15.27575798142348"
  },
  {
    "name": "STARLINK-30987",
    "noradId": "58487",
    "line1": "1 58487U 23186Q   26176.31115901  .00001850  00000+0  76761-4 0  9999",
    "line2": "2 58487  43.0035 176.0200 0001467 271.2437  88.8247 15.27576539142340"
  },
  {
    "name": "STARLINK-31000",
    "noradId": "58488",
    "line1": "1 58488U 23186R   26176.29959162  .00001633  00000+0  68834-4 0  9993",
    "line2": "2 58488  42.9996 175.9310 0000993 277.1616  82.9122 15.27585044142340"
  },
  {
    "name": "STARLINK-30993",
    "noradId": "58489",
    "line1": "1 58489U 23186S   26176.30344308  .00003960  00000+0  15329-3 0  9991",
    "line2": "2 58489  43.0002 175.9610 0001302 268.6289  91.4413 15.27590933142341"
  },
  {
    "name": "STARLINK-30978",
    "noradId": "58490",
    "line1": "1 58490U 23186T   26176.29317040  .00000522  00000+0  28508-4 0  9999",
    "line2": "2 58490  42.9995 175.8832 0001126 264.6974  95.3750 15.27576866142344"
  },
  {
    "name": "STARLINK-30953",
    "noradId": "58491",
    "line1": "1 58491U 23186U   26176.27296884  .00000374  00000+0  23120-4 0  9990",
    "line2": "2 58491  43.0034  19.9277 0000977 272.5712  87.5028 15.27576869144349"
  },
  {
    "name": "STARLINK-30986",
    "noradId": "58492",
    "line1": "1 58492U 23186V   26176.28931196  .00001074  00000+0  48542-4 0  9997",
    "line2": "2 58492  42.9984 175.8525 0001179 274.2035  85.8682 15.27582014142346"
  },
  {
    "name": "STARLINK-30985",
    "noradId": "58493",
    "line1": "1 58493U 23186W   26176.28160480  .00001365  00000+0  59103-4 0  9996",
    "line2": "2 58493  43.0003 175.7955 0001367 281.8283  78.2415 15.27579292142349"
  },
  {
    "name": "STARLINK-30981",
    "noradId": "58494",
    "line1": "1 58494U 23186X   26176.47390309  .00001992  00000+0  81893-4 0  9990",
    "line2": "2 58494  43.0014 174.6574 0001518 274.6156  85.4522 15.27586954142379"
  },
  {
    "name": "STARLINK-31002",
    "noradId": "58495",
    "line1": "1 58495U 23186Y   26175.72910368  .00000956  00000+0  44250-4 0  9996",
    "line2": "2 58495  43.0036 179.3879 0001430 267.0882  92.9806 15.27578222142422"
  },
  {
    "name": "STARLINK-31026",
    "noradId": "58508",
    "line1": "1 58508U 23191A   26176.47567078  .00001053  00000+0  47763-4 0  9997",
    "line2": "2 58508  42.9999 221.7157 0001239 282.6450  77.4263 15.27586606141873"
  },
  {
    "name": "STARLINK-31020",
    "noradId": "58509",
    "line1": "1 58509U 23191B   26176.52950852  .00001205  00000+0  53320-4 0  9995",
    "line2": "2 58509  43.0028 221.2628 0001689 266.1052  93.9606 15.27573023141885"
  },
  {
    "name": "STARLINK-30989",
    "noradId": "58510",
    "line1": "1 58510U 23191C   26176.48179863  .00000948  00000+0  43969-4 0  9998",
    "line2": "2 58510  43.0014 214.9507 0001105 275.4609  84.6117 15.27582392141985"
  },
  {
    "name": "STARLINK-30968",
    "noradId": "58511",
    "line1": "1 58511U 23191D   26176.42028351 -.00000598  00000+0 -12206-4 0  9991",
    "line2": "2 58511  43.0022 215.3478 0002312 283.2635  76.7959 15.27562073141940"
  },
  {
    "name": "STARLINK-30982",
    "noradId": "58512",
    "line1": "1 58512U 23191E   26175.83564698  .00001186  00000+0  52611-4 0  9991",
    "line2": "2 58512  43.0030 218.6980 0001202 278.9557  81.1159 15.27574201141853"
  },
  {
    "name": "STARLINK-30998",
    "noradId": "58513",
    "line1": "1 58513U 23191F   26175.83822070  .00000529  00000+0  28754-4 0  9994",
    "line2": "2 58513  43.0007 218.7231 0000978 280.1348  79.9394 15.27578623141881"
  },
  {
    "name": "STARLINK-30983",
    "noradId": "58514",
    "line1": "1 58514U 23191G   26176.52919569  .00004088  00000+0  15797-3 0  9998",
    "line2": "2 58514  42.9983 214.4431 0001317 287.5450  72.5258 15.27588446141614"
  },
  {
    "name": "STARLINK-31017",
    "noradId": "58515",
    "line1": "1 58515U 23191H   26176.54161633  .00001055  00000+0  47863-4 0  9993",
    "line2": "2 58515  43.0019 342.0704 0001202 269.6434  90.4280 15.27575086144673"
  }
]